{
    "links": {
        "self": "http://www.neowsapp.com/rest/v1/neo/54016808?api_key=iIulBulltgU6a56xZRHN4H3l9WmuAYTsLGpBGhQ2"
    },
    "id": "54016808",
    "neo_reference_id": "54016808",
    "name": "(2020 HV7)",
    "designation": "2020 HV7",
    "nasa_jpl_url": "http://ssd.jpl.nasa.gov/sbdb.cgi?sstr=54016808",
    "absolute_magnitude_h": 27.175,
    "estimated_diameter": {
        "kilometers": {
            "estimated_diameter_min": 0.0097623635,
            "estimated_diameter_max": 0.0218293085
        },
        "meters": {
            "estimated_diameter_min": 9.7623635472,
            "estimated_diameter_max": 21.8293085127
        },
        "miles": {
            "estimated_diameter_min": 0.0060660496,
            "estimated_diameter_max": 0.0135640993
        },
        "feet": {
            "estimated_diameter_min": 32.0287528203,
            "estimated_diameter_max": 71.6184685408
        }
    },
    "is_potentially_hazardous_asteroid": false,
    "close_approach_data": [
        {
            "close_approach_date": "1986-05-27",
            "close_approach_date_full": "1986-May-27 09:42",
            "epoch_date_close_approach": 517570920000,
            "relative_velocity": {
                "kilometers_per_second": "15.8617213226",
                "kilometers_per_hour": "57102.1967614932",
                "miles_per_hour": "35481.0844266067"
            },
            "miss_distance": {
                "astronomical": "0.3189751921",
                "lunar": "124.0813497269",
                "kilometers": "47718009.321000827",
                "miles": "29650596.0756603326"
            },
            "orbiting_body": "Earth"
        },
        {
            "close_approach_date": "2020-04-19",
            "close_approach_date_full": "2020-Apr-19 15:54",
            "epoch_date_close_approach": 1587311640000,
            "relative_velocity": {
                "kilometers_per_second": "6.1688455872",
                "kilometers_per_hour": "22207.8441139588",
                "miles_per_hour": "13799.0906940318"
            },
            "miss_distance": {
                "astronomical": "0.0105833497",
                "lunar": "4.1169230333",
                "kilometers": "1583246.572585139",
                "miles": "983783.8015433582"
            },
            "orbiting_body": "Earth"
        }
    ],
    "orbital_data": {
        "orbit_id": "2",
        "orbit_determination_date": "2020-04-30 06:33:18",
        "first_observation_date": "2020-04-26",
        "last_observation_date": "2020-04-30",
        "data_arc_in_days": 4,
        "observations_used": 28,
        "orbit_uncertainty": "8",
        "minimum_orbit_intersection": ".00468287",
        "jupiter_tisserand_invariant": "4.164",
        "epoch_osculation": "2458966.5",
        "eccentricity": ".4035474956714564",
        "semi_major_axis": "1.662236383871186",
        "inclination": "1.554913288148742",
        "ascending_node_longitude": "194.2479508179238",
        "orbital_period": "782.7761827661163",
        "perihelion_distance": ".9914450539459914",
        "perihelion_argument": "354.3566296583206",
        "aphelion_distance": "2.333027713796381",
        "perihelion_time": "2458941.282615739953",
        "mean_anomaly": "11.59751476026882",
        "mean_motion": ".4599015758602398",
        "equinox": "J2000",
        "orbit_class": {
            "orbit_class_type": "APO",
            "orbit_class_description": "Near-Earth asteroid orbits which cross the Earth’s orbit similar to that of 1862 Apollo",
            "orbit_class_range": "a (semi-major axis) > 1.0 AU; q (perihelion) < 1.017 AU"
        }
    },
    "is_sentry_object": false
}